[{"OBJECT_NAME":"STARLINK-4787","OBJECT_ID":"2022-119U","EPOCH":"2026-03-09T23:27:19.044864","MEAN_MOTION":15.08823512,"ECCENTRICITY":0.00012789,"INCLINATION":53.219,"RA_OF_ASC_NODE":322.4315,"ARG_OF_PERICENTER":93.919,"MEAN_ANOMALY":266.1948,"EPHEMERIS_TYPE":0,"CLASSIFICATION_TYPE":"U","NORAD_CAT_ID":53904,"ELEMENT_SET_NO":999,"REV_AT_EPOCH":19173,"BSTAR":0.00011519537,"MEAN_MOTION_DOT":1.545e-5,"MEAN_MOTION_DDOT":0},{"OBJECT_NAME":"OBJECT G","OBJECT_ID":"2025-292G","EPOCH":"2026-03-09T22:41:34.708704","MEAN_MOTION":15.05879657,"ECCENTRICITY":0.00150455,"INCLINATION":97.6425,"RA_OF_ASC_NODE":145.7524,"ARG_OF_PERICENTER":352.95,"MEAN_ANOMALY":7.1513,"EPHEMERIS_TYPE":0,"CLASSIFICATION_TYPE":"U","NORAD_CAT_ID":66999,"ELEMENT_SET_NO":999,"REV_AT_EPOCH":1351,"BSTAR":0.00047153864,"MEAN_MOTION_DOT":6.807e-5,"MEAN_MOTION_DDOT":0}]
